[{"OBJECT_NAME":"OBJECT B","OBJECT_ID":"2024-205B","EPOCH":"2026-03-09T23:46:05.115936","MEAN_MOTION":15.28158697,"ECCENTRICITY":0.00105957,"INCLINATION":97.4192,"RA_OF_ASC_NODE":146.9311,"ARG_OF_PERICENTER":34.0947,"MEAN_ANOMALY":326.0972,"EPHEMERIS_TYPE":0,"CLASSIFICATION_TYPE":"U","NORAD_CAT_ID":61895,"ELEMENT_SET_NO":999,"REV_AT_EPOCH":7352,"BSTAR":0.00054154807,"MEAN_MOTION_DOT":0.00014827,"MEAN_MOTION_DDOT":0},{"OBJECT_NAME":"STARLINK-34768","OBJECT_ID":"2025-167T","EPOCH":"2026-03-09T04:46:49.943424","MEAN_MOTION":15.30193923,"ECCENTRICITY":0.00011136,"INCLINATION":53.162,"RA_OF_ASC_NODE":29.0121,"ARG_OF_PERICENTER":92.0767,"MEAN_ANOMALY":268.0361,"EPHEMERIS_TYPE":0,"CLASSIFICATION_TYPE":"U","NORAD_CAT_ID":65095,"ELEMENT_SET_NO":999,"REV_AT_EPOCH":3340,"BSTAR":0.00095792648,"MEAN_MOTION_DOT":0.00028114,"MEAN_MOTION_DDOT":0}]
